{
    "links": {
        "self": "http://www.neowsapp.com/rest/v1/neo/3770290?api_key=iIulBulltgU6a56xZRHN4H3l9WmuAYTsLGpBGhQ2"
    },
    "id": "3770290",
    "neo_reference_id": "3770290",
    "name": "(2017 DP109)",
    "designation": "2017 DP109",
    "nasa_jpl_url": "http://ssd.jpl.nasa.gov/sbdb.cgi?sstr=3770290",
    "absolute_magnitude_h": 26.9,
    "estimated_diameter": {
        "kilometers": {
            "estimated_diameter_min": 0.0110803882,
            "estimated_diameter_max": 0.0247765013
        },
        "meters": {
            "estimated_diameter_min": 11.0803882126,
            "estimated_diameter_max": 24.7765012606
        },
        "miles": {
            "estimated_diameter_min": 0.0068850319,
            "estimated_diameter_max": 0.0153953994
        },
        "feet": {
            "estimated_diameter_min": 36.3529808636,
            "estimated_diameter_max": 81.2877363957
        }
    },
    "is_potentially_hazardous_asteroid": false,
    "close_approach_data": [
        {
            "close_approach_date": "2017-03-03",
            "close_approach_date_full": "2017-Mar-03 07:17",
            "epoch_date_close_approach": 1488525420000,
            "relative_velocity": {
                "kilometers_per_second": "12.9648982987",
                "kilometers_per_hour": "46673.6338752228",
                "miles_per_hour": "29001.1810043016"
            },
            "miss_distance": {
                "astronomical": "0.0090377686",
                "lunar": "3.5156919854",
                "kilometers": "1352030.932112882",
                "miles": "840113.0646544916"
            },
            "orbiting_body": "Moon"
        },
        {
            "close_approach_date": "2017-03-03",
            "close_approach_date_full": "2017-Mar-03 07:40",
            "epoch_date_close_approach": 1488526800000,
            "relative_velocity": {
                "kilometers_per_second": "11.9120329087",
                "kilometers_per_hour": "42883.3184714352",
                "miles_per_hour": "26646.0264135426"
            },
            "miss_distance": {
                "astronomical": "0.0065776968",
                "lunar": "2.5587240552",
                "kilometers": "984009.430785816",
                "miles": "611435.1076676208"
            },
            "orbiting_body": "Earth"
        }
    ],
    "orbital_data": {
        "orbit_id": "2",
        "orbit_determination_date": "2017-04-06 08:19:48",
        "first_observation_date": "2017-02-23",
        "last_observation_date": "2017-03-02",
        "data_arc_in_days": 7,
        "observations_used": 28,
        "orbit_uncertainty": "8",
        "minimum_orbit_intersection": ".00142855",
        "jupiter_tisserand_invariant": "3.247",
        "epoch_osculation": "2457811.5",
        "eccentricity": ".6164363220702004",
        "semi_major_axis": "2.383781597052971",
        "inclination": "3.028809658682399",
        "ascending_node_longitude": "162.1679088614345",
        "orbital_period": "1344.305950057694",
        "perihelion_distance": ".9143320367470094",
        "perihelion_argument": "38.8911292458143",
        "aphelion_distance": "3.853231157358934",
        "perihelion_time": "2457843.946074777369",
        "mean_anomaly": "351.3110650746197",
        "mean_motion": ".2677961813562975",
        "equinox": "J2000",
        "orbit_class": {
            "orbit_class_type": "APO",
            "orbit_class_description": "Near-Earth asteroid orbits which cross the Earth’s orbit similar to that of 1862 Apollo",
            "orbit_class_range": "a (semi-major axis) > 1.0 AU; q (perihelion) < 1.017 AU"
        }
    },
    "is_sentry_object": false
}